ORBCOMM FM103           
1 40091U 14040F   25269.04208863  .00001297  00000+0  31410-3 0  9998
2 40091  47.0047 261.4556 0001843 348.8599  11.2246 14.58322195578825
ORBCOMM FM114           
1 41179U 15081A   25269.12933256  .00001399  00000+0  33559-3 0  9991
2 41179  47.0025 170.0362 0001517  81.2521 278.8536 14.58361038519209
ORBCOMM FM119           
1 41180U 15081B   25268.98495918  .00001522  00000+0  36235-3 0  9996
2 41180  47.0001  80.0577 0001099 179.2542 180.8346 14.58296346520436
ORBCOMM FM105           
1 41181U 15081C   25268.94748042  .00000580  00000+0  20818-3 0  9995
2 41181  47.0010  94.9937 0001388  42.3135 317.7852 14.45298777515321
ORBCOMM FM110           
1 41182U 15081D   25269.12140891  .00002092  00000+0  48346-3 0  9991
2 41182  47.0013 169.6081 0002896 304.1776  55.8834 14.58381635519076
ORBCOMM FM118           
1 41183U 15081E   25269.01682314  .00001775  00000+0  41602-3 0  9996
2 41183  47.0035 170.3623 0003243 264.7426  95.3090 14.58356025519160
ORBCOMM FM112           
1 41184U 15081F   25267.51555459  .00003401  00000+0  76241-3 0  9994
2 41184  46.9957  86.0627 0001116  90.1147 269.9866 14.58422271520166
ORBCOMM FM113           
1 41185U 15081G   25269.20524725  .00001913  00000+0  44488-3 0  9999
2 41185  47.0006  78.4190 0000883 129.5731 230.5233 14.58411023520390
